IRIDIUM 116             
1 43072U 17083C   24208.85550018  .00000068  00000+0  17322-4 0  9995
2 43072  86.3938 250.4787 0002259  90.4323 269.7131 14.34217737345221
IRIDIUM 130             
1 43073U 17083D   24208.54471012  .00000193  00000+0  61908-4 0  9996
2 43073  86.3946 250.8170 0002364  90.5107 269.6360 14.34218728345122
IRIDIUM 151             
1 43074U 17083E   24209.14726050  .00000411  00000+0  13953-3 0  9998
2 43074  86.3937 250.3988 0002181  96.5794 263.5650 14.34216269345235
IRIDIUM 134             
1 43075U 17083F   24208.83647156  .00000119  00000+0  35574-4 0  9992
2 43075  86.3941 250.5275 0002336  87.4735 272.6728 14.34218231345157
IRIDIUM 137             
1 43076U 17083G   24208.84915543  .00000420  00000+0  14288-3 0  9995
2 43076  86.3941 250.6007 0001771  93.1595 266.9804 14.34217005345229
IRIDIUM 141             
1 43077U 17083H   24208.56374039  .00000107  00000+0  31065-4 0  9999
2 43077  86.3935 250.5900 0002465  96.6833 263.4643 14.34219741345185
IRIDIUM 153             
1 43078U 17083J   24208.79498626  .00000048  00000+0  10073-4 0  9994
2 43078  86.3964 218.9668 0002680 102.4663 257.6833 14.34216819346329
IRIDIUM 131             
1 43079U 17083K   24208.83013006  .00000050  00000+0  10656-4 0  9995
2 43079  86.3943 250.6187 0002171  95.0406 265.1037 14.34217099345154
